OBJECT_NAME,OBJECT_ID,EPOCH,MEAN_MOTION,ECCENTRICITY,INCLINATION,RA_OF_ASC_NODE,ARG_OF_PERICENTER,MEAN_ANOMALY,EPHEMERIS_TYPE,CLASSIFICATION_TYPE,NORAD_CAT_ID,ELEMENT_SET_NO,REV_AT_EPOCH,BSTAR,MEAN_MOTION_DOT,MEAN_MOTION_DDOT
GSAT0216 (GALILEO 20),2017-079B,2026-06-26T02:31:50.584512,1.70474721,.00046591,55.0717,221.2611,276.6161,83.4222,0,U,43056,999,5315,0,.62E-6,0
GSAT0217 (GALILEO 21),2017-079C,2026-06-26T07:49:47.498016,1.70474719,.0003945,55.0685,221.2528,287.8828,72.1663,0,U,43057,999,5314,0,.63E-6,0
GSAT0218 (GALILEO 22),2017-079D,2026-06-27T17:16:03.903168,1.70474400,.00061633,55.0695,221.2120,274.4572,85.5687,0,U,43058,999,5319,0,.68E-6,0
BEIDOU-3 M7 (C27),2018-003A,2026-06-28T02:09:13.154112,1.86228313,.00049103,54.3171,301.9342,95.7490,264.3050,0,U,43107,999,5755,0,-.89E-6,0
BEIDOU-3 M8 (C28),2018-003B,2026-06-29T02:35:52.172736,1.86231229,.000275,54.3090,301.8814,259.2920,100.6793,0,U,43108,999,5758,0,-.81E-6,0
BEIDOU-3 M4 (C22),2018-018A,2026-06-29T00:20:42.438912,1.86231549,.0007427,56.6611,62.7586,23.7598,336.3310,0,U,43207,999,5696,0,-.6E-6,0
BEIDOU-3 M3 (C21),2018-018B,2026-06-29T01:56:26.771424,1.86231367,.0008125,56.6611,62.7601,342.8651,17.1644,0,U,43208,999,5696,0,-.59E-6,0
BEIDOU-3 M9 (C29),2018-029A,2026-06-27T16:30:31.112640,1.86228615,.00009375,54.1834,299.5811,166.7829,193.2191,0,U,43245,999,5609,0,-.9E-6,0
BEIDOU-3 M10 (C30),2018-029B,2026-06-28T03:49:08.332608,1.86229480,.00036217,54.1804,299.5911,39.5768,320.4508,0,U,43246,999,5608,0,-.86E-6,0
IRNSS-1I,2018-035A,2026-06-28T19:05:38.535360,1.00277388,.0017671,28.7805,74.0157,182.6115,1.5908,0,U,43286,999,3019,0,.66E-6,0
COSMOS 2527 (756),2018-053A,2026-06-27T21:03:54.996768,2.13102103,.0006813,65.5836,73.5506,236.4648,123.5150,0,U,43508,999,6250,0,-.45E-6,0
BEIDOU-2 IGSO-7 (C16),2018-057A,2026-06-26T12:08:29.940576,1.00249004,.0104768,55.1970,162.9757,237.9790,164.9478,0,U,43539,999,2922,0,-.28E-6,0
GSAT0221 (GALILEO 25),2018-060A,2026-06-27T00:53:07.768608,1.70476269,.00025202,57.1661,341.5145,298.2100,61.7583,0,U,43564,999,4933,0,-.94E-6,0
GSAT0222 (GALILEO 26),2018-060B,2026-06-28T10:18:48.741984,1.70476044,.00022577,57.1685,341.4807,240.6256,119.3439,0,U,43565,999,4940,0,-.91E-6,0
GSAT0219 (GALILEO 23),2018-060C,2026-06-28T01:32:11.598432,1.70476307,.00017868,57.1687,341.4920,313.2076,46.7699,0,U,43566,999,4937,0,-.92E-6,0
GSAT0220 (GALILEO 24),2018-060D,2026-06-27T16:45:45.181440,1.70476279,.00019211,57.1676,341.5017,305.3524,54.6226,0,U,43567,999,4935,0,-.93E-6,0
BEIDOU-3 M5 (C23),2018-062A,2026-06-27T20:18:31.178016,1.86228745,.00057682,54.0860,181.9416,291.0967,68.8660,0,U,43581,999,5383,0,.83E-6,0
BEIDOU-3 M6 (C24),2018-062B,2026-06-27T17:01:59.570400,1.86227843,.00051051,54.0860,181.9355,8.8787,351.1552,0,U,43582,999,5383,0,.85E-6,0
BEIDOU-3 M12 (C26),2018-067A,2026-06-26T00:53:39.683040,1.86227758,.0007828,54.1810,180.7397,29.5974,330.4748,0,U,43602,999,5328,0,.98E-6,0
BEIDOU-3 M11 (C25),2018-067B,2026-06-28T07:41:03.689376,1.86227250,.00045873,54.1783,180.6260,12.7295,347.3012,0,U,43603,999,5335,0,.78E-6,0
BEIDOU-3 M13 (C32),2018-072A,2026-06-28T06:35:58.003296,1.86231424,.00069017,56.6346,62.2932,331.0537,28.9612,0,U,43622,999,5286,0,-.67E-6,0
BEIDOU-3 M14 (C33),2018-072B,2026-06-29T05:08:37.907232,1.86231476,.0005865,56.6369,62.2566,5.5220,354.5425,0,U,43623,999,5287,0,-.58E-6,0
BEIDOU-3 M16 (C35),2018-078A,2026-06-28T19:58:48.927936,1.86232470,.00069173,54.0786,299.5778,40.5886,319.4668,0,U,43647,999,5237,0,-.8E-6,0
BEIDOU-3 M15 (C34),2018-078B,2026-06-28T23:04:58.594656,1.86232603,.0003927,54.0740,299.5736,58.0556,301.9871,0,U,43648,999,5239,0,-.79E-6,0
BEIDOU-3 G1 (C59),2018-085A,2026-06-29T15:20:17.848608,1.00271123,.0008556,2.8987,97.0115,353.1837,217.5187,0,U,43683,999,2818,0,-.101E-5,0
COSMOS 2529 (757),2018-086A,2026-06-29T09:09:54.697248,2.13102097,.0012123,64.2959,192.1827,256.5039,103.4062,0,U,43687,999,5954,0,.86E-6,0
BEIDOU-3 M17 (C36),2018-093A,2026-06-26T12:03:21.339648,1.86228594,.0010136,54.1697,181.9800,292.4713,110.1482,0,U,43706,999,5171,0,.95E-6,0
BEIDOU-3 M18 (C37),2018-093B,2026-06-26T07:15:06.898752,1.86226640,.0008135,54.1702,181.9788,321.1510,38.8204,0,U,43707,999,5170,0,.97E-6,0
GPS BIII-1  (PRN 04),2018-109A,2026-06-29T00:00:02.927232,2.00562422,.00384994,55.6885,91.7208,197.6840,175.4799,0,U,43873,999,5531,0,-.44E-6,0
BEIDOU-3 IGSO-1 (C38),2019-023A,2026-06-28T11:39:23.419872,1.00288999,.0025747,58.7105,37.5330,224.4783,307.9858,0,U,44204,999,732,0,-.206E-5,0
BEIDOU-2 G8 (C01),2019-027A,2026-06-27T23:27:31.406112,1.00268598,.00098358,1.6855,74.5233,285.1014,52.8069,0,U,44231,999,2618,0,-.238E-5,0
